[{"OBJECT_NAME":"STARLINK-5256","OBJECT_ID":"2022-141U","EPOCH":"2026-03-09T06:24:36.907776","MEAN_MOTION":15.08869984,"ECCENTRICITY":0.00016823,"INCLINATION":53.2185,"RA_OF_ASC_NODE":6.0286,"ARG_OF_PERICENTER":85.0951,"MEAN_ANOMALY":275.0233,"EPHEMERIS_TYPE":0,"CLASSIFICATION_TYPE":"U","NORAD_CAT_ID":54175,"ELEMENT_SET_NO":999,"REV_AT_EPOCH":18579,"BSTAR":0.00051536115,"MEAN_MOTION_DOT":7.93e-5,"MEAN_MOTION_DDOT":0},{"OBJECT_NAME":"CZ-6A DEB","OBJECT_ID":"2024-140AAU","EPOCH":"2026-03-09T16:48:50.985504","MEAN_MOTION":14.99127941,"ECCENTRICITY":0.00591225,"INCLINATION":89.196,"RA_OF_ASC_NODE":296.0099,"ARG_OF_PERICENTER":104.8686,"MEAN_ANOMALY":255.9106,"EPHEMERIS_TYPE":0,"CLASSIFICATION_TYPE":"U","NORAD_CAT_ID":61486,"ELEMENT_SET_NO":999,"REV_AT_EPOCH":8015,"BSTAR":0.0049724997,"MEAN_MOTION_DOT":0.00063139,"MEAN_MOTION_DDOT":0}]
